JILIN-1 GAOFEN 03D18    
1 51844U 22019W   26112.22584588  .00603128  17165-3  10028-2 0  9996
2 51844  97.3578 208.0101 0007256 251.4319 108.6173 16.02971339231250
JILIN-1 GAOFEN 3D04     
1 52389U 22046B   26112.30497946  .00548843  13877-3  96252-3 0  9993
2 52389  97.4917 231.5008 0007446 247.7591 112.2898 16.02049490221787
JILIN-1 GAOFEN 3D05     
1 52390U 22046C   26112.29371983  .03599006  25288-5  95310-3 0  9990
2 52390  97.4784 231.3685 0011438 268.6975  91.3008 16.28279211221878
JILIN-1 GAOFEN 3D06     
1 52391U 22046D   26112.31360564  .00688103  23864-3  96342-3 0  9993
2 52391  97.5083 233.8889 0008372 249.1368 110.9017 16.05829511221842
STARLINK-4349           
1 53044U 22077B   26112.53392862  .00535071  14568-3  63932-3 0  9998
2 53044  97.5725 308.0441 0004715 155.6235 204.5271 16.08406453208454
DONGPO 06               
1 53447U 22098D   26112.14840650  .01676576  25042-5  95296-3 0  9994
2 53447  97.5253 246.4580 0008998 260.7290  99.2981 16.19051705206499
DONGPO 04               
1 53451U 22098H   26112.08664697  .01085217  77207-3  94731-3 0  9994
2 53451  97.5587 248.7390 0009415 256.1127 103.9111 16.13264895206488
STARLINK-5228           
1 54180U 22141Z   26112.54330264  .00450930  10841-3  57073-3 0  9990
2 54180  53.2139 149.7677 0001108  88.6889 271.4272 16.06927138192720
STARLINK-5851           
1 55947U 23037AK  26112.24764743  .00685299  23146-3  10532-2 0  9995
2 55947  69.9958 158.0815 0004809 259.8521 100.2150 16.04140681170917
GHOST-1                 
1 56195U 23054T   26112.27140903  .00458987  10069-3  65664-3 0  9998
2 56195  97.2857  32.6509 0007456 152.4952 207.6725 16.05464483170582
STARLINK-6070           
1 56802U 23078AM  26112.25001157  .00895169  38849-3  17345-2 0  9999
2 56802  69.9962 201.0945 0004298 284.4639  47.9373 16.00219788  5914
OTTER PUP               
1 56933U 23084B   26111.95072053  .00661732  22828-3  80463-3 0  9999
2 56933  97.5640 273.0241 0004112 260.8619  99.2198 16.08154501160385
NUSAT-43 (R DIENG-KUNTZ)
1 56968U 23084AN  26112.24030966  .00252841  25938-4  77518-3 0  9997
2 56968  97.4384 258.0817 0001863 266.7973  93.3088 15.91873455160455
SHIYAN-25 (SY-25)       
1 57047U 23087A   26111.90814848 -.00069107  37882-5 -12574-3 0  9996
2 57047  96.7632 173.4204 0016213 213.4892 146.5365 16.00991660165797
QIANKUN-1               
1 57422U 23103B   26111.84003301  .00111854  72361-5  12393-3 0  9994
2 57422  96.1743 160.5448 0041550 122.3633 238.1686 16.07700153158249
STARLINK-30189          
1 57430U 23105A   26112.25001157  .00675634  20851-3  13601-2 0  9996
2 57430  42.9975 334.4242 0002587 265.0028 303.8210 15.98848217  5908
