[{"OBJECT_NAME":"JILIN-1 GAOFEN 03D18","OBJECT_ID":"2022-019W","EPOCH":"2026-04-22T05:25:13.084032","MEAN_MOTION":16.02971339,"ECCENTRICITY":0.00072562,"INCLINATION":97.3578,"RA_OF_ASC_NODE":208.0101,"ARG_OF_PERICENTER":251.4319,"MEAN_ANOMALY":108.6173,"EPHEMERIS_TYPE":0,"CLASSIFICATION_TYPE":"U","NORAD_CAT_ID":51844,"ELEMENT_SET_NO":999,"REV_AT_EPOCH":23125,"BSTAR":0.0010027948,"MEAN_MOTION_DOT":0.00603128,"MEAN_MOTION_DDOT":0.00017165217},{"OBJECT_NAME":"JILIN-1 GAOFEN 3D04","OBJECT_ID":"2022-046B","EPOCH":"2026-04-22T07:19:10.225344","MEAN_MOTION":16.0204949,"ECCENTRICITY":0.00074462,"INCLINATION":97.4917,"RA_OF_ASC_NODE":231.5008,"ARG_OF_PERICENTER":247.7591,"MEAN_ANOMALY":112.2898,"EPHEMERIS_TYPE":0,"CLASSIFICATION_TYPE":"U","NORAD_CAT_ID":52389,"ELEMENT_SET_NO":999,"REV_AT_EPOCH":22178,"BSTAR":0.00096252219,"MEAN_MOTION_DOT":0.00548843,"MEAN_MOTION_DDOT":0.00013876922},{"OBJECT_NAME":"JILIN-1 GAOFEN 3D05","OBJECT_ID":"2022-046C","EPOCH":"2026-04-22T07:02:57.393312","MEAN_MOTION":16.28279211,"ECCENTRICITY":0.00114384,"INCLINATION":97.4784,"RA_OF_ASC_NODE":231.3685,"ARG_OF_PERICENTER":268.6975,"MEAN_ANOMALY":91.3008,"EPHEMERIS_TYPE":0,"CLASSIFICATION_TYPE":"U","NORAD_CAT_ID":52390,"ELEMENT_SET_NO":999,"REV_AT_EPOCH":22187,"BSTAR":0.00095310111,"MEAN_MOTION_DOT":0.03599006,"MEAN_MOTION_DDOT":2.528827e-6},{"OBJECT_NAME":"JILIN-1 GAOFEN 3D06","OBJECT_ID":"2022-046D","EPOCH":"2026-04-22T07:31:35.527296","MEAN_MOTION":16.05829511,"ECCENTRICITY":0.00083728,"INCLINATION":97.5083,"RA_OF_ASC_NODE":233.8889,"ARG_OF_PERICENTER":249.1368,"MEAN_ANOMALY":110.9017,"EPHEMERIS_TYPE":0,"CLASSIFICATION_TYPE":"U","NORAD_CAT_ID":52391,"ELEMENT_SET_NO":999,"REV_AT_EPOCH":22184,"BSTAR":0.00096342238,"MEAN_MOTION_DOT":0.00688103,"MEAN_MOTION_DDOT":0.00023863928},{"OBJECT_NAME":"STARLINK-4349","OBJECT_ID":"2022-077B","EPOCH":"2026-04-22T12:48:51.432768","MEAN_MOTION":16.08406453,"ECCENTRICITY":0.0004715,"INCLINATION":97.5725,"RA_OF_ASC_NODE":308.0441,"ARG_OF_PERICENTER":155.6235,"MEAN_ANOMALY":204.5271,"EPHEMERIS_TYPE":0,"CLASSIFICATION_TYPE":"U","NORAD_CAT_ID":53044,"ELEMENT_SET_NO":999,"REV_AT_EPOCH":20845,"BSTAR":0.00063932,"MEAN_MOTION_DOT":0.00535071,"MEAN_MOTION_DDOT":0.00014568},{"OBJECT_NAME":"DONGPO 06","OBJECT_ID":"2022-098D","EPOCH":"2026-04-22T03:33:42.321600","MEAN_MOTION":16.19051705,"ECCENTRICITY":0.00089989,"INCLINATION":97.5253,"RA_OF_ASC_NODE":246.458,"ARG_OF_PERICENTER":260.729,"MEAN_ANOMALY":99.2981,"EPHEMERIS_TYPE":0,"CLASSIFICATION_TYPE":"U","NORAD_CAT_ID":53447,"ELEMENT_SET_NO":999,"REV_AT_EPOCH":20649,"BSTAR":0.00095296092,"MEAN_MOTION_DOT":0.01676576,"MEAN_MOTION_DDOT":2.504232e-6},{"OBJECT_NAME":"DONGPO 04","OBJECT_ID":"2022-098H","EPOCH":"2026-04-22T02:04:46.298208","MEAN_MOTION":16.13264895,"ECCENTRICITY":0.00094152,"INCLINATION":97.5587,"RA_OF_ASC_NODE":248.739,"ARG_OF_PERICENTER":256.1127,"MEAN_ANOMALY":103.9111,"EPHEMERIS_TYPE":0,"CLASSIFICATION_TYPE":"U","NORAD_CAT_ID":53451,"ELEMENT_SET_NO":999,"REV_AT_EPOCH":20648,"BSTAR":0.00094731105,"MEAN_MOTION_DOT":0.01085217,"MEAN_MOTION_DDOT":0.00077207014},{"OBJECT_NAME":"STARLINK-5228","OBJECT_ID":"2022-141Z","EPOCH":"2026-04-22T13:02:21.348096","MEAN_MOTION":16.06927138,"ECCENTRICITY":0.0001108,"INCLINATION":53.2139,"RA_OF_ASC_NODE":149.7677,"ARG_OF_PERICENTER":88.6889,"MEAN_ANOMALY":271.4272,"EPHEMERIS_TYPE":0,"CLASSIFICATION_TYPE":"U","NORAD_CAT_ID":54180,"ELEMENT_SET_NO":999,"REV_AT_EPOCH":19272,"BSTAR":0.00057073,"MEAN_MOTION_DOT":0.0045093,"MEAN_MOTION_DDOT":0.00010841},{"OBJECT_NAME":"STARLINK-5851","OBJECT_ID":"2023-037AK","EPOCH":"2026-04-22T05:56:36.737952","MEAN_MOTION":16.04140681,"ECCENTRICITY":0.00048098,"INCLINATION":69.9958,"RA_OF_ASC_NODE":158.0815,"ARG_OF_PERICENTER":259.8521,"MEAN_ANOMALY":100.215,"EPHEMERIS_TYPE":0,"CLASSIFICATION_TYPE":"U","NORAD_CAT_ID":55947,"ELEMENT_SET_NO":999,"REV_AT_EPOCH":17091,"BSTAR":0.0010532083,"MEAN_MOTION_DOT":0.00685299,"MEAN_MOTION_DDOT":0.0002314635},{"OBJECT_NAME":"GHOST-1","OBJECT_ID":"2023-054T","EPOCH":"2026-04-22T06:30:49.740192","MEAN_MOTION":16.05464483,"ECCENTRICITY":0.00074562,"INCLINATION":97.2857,"RA_OF_ASC_NODE":32.6509,"ARG_OF_PERICENTER":152.4952,"MEAN_ANOMALY":207.6725,"EPHEMERIS_TYPE":0,"CLASSIFICATION_TYPE":"U","NORAD_CAT_ID":56195,"ELEMENT_SET_NO":999,"REV_AT_EPOCH":17058,"BSTAR":0.00065663506,"MEAN_MOTION_DOT":0.00458987,"MEAN_MOTION_DDOT":0.00010069242},{"OBJECT_NAME":"STARLINK-6070","OBJECT_ID":"2023-078AM","EPOCH":"2026-04-22T06:00:00.999648","MEAN_MOTION":16.00219788,"ECCENTRICITY":0.00042986,"INCLINATION":69.9962,"RA_OF_ASC_NODE":201.0945,"ARG_OF_PERICENTER":284.4639,"MEAN_ANOMALY":47.9373,"EPHEMERIS_TYPE":0,"CLASSIFICATION_TYPE":"U","NORAD_CAT_ID":56802,"ELEMENT_SET_NO":999,"REV_AT_EPOCH":591,"BSTAR":0.001734474,"MEAN_MOTION_DOT":0.00895169,"MEAN_MOTION_DDOT":0.00038848736},{"OBJECT_NAME":"OTTER PUP","OBJECT_ID":"2023-084B","EPOCH":"2026-04-21T22:49:02.253792","MEAN_MOTION":16.08154501,"ECCENTRICITY":0.00041122,"INCLINATION":97.564,"RA_OF_ASC_NODE":273.0241,"ARG_OF_PERICENTER":260.8619,"MEAN_ANOMALY":99.2198,"EPHEMERIS_TYPE":0,"CLASSIFICATION_TYPE":"U","NORAD_CAT_ID":56933,"ELEMENT_SET_NO":999,"REV_AT_EPOCH":16038,"BSTAR":0.00080463145,"MEAN_MOTION_DOT":0.00661732,"MEAN_MOTION_DDOT":0.00022828262},{"OBJECT_NAME":"NUSAT-43 (R DIENG-KUNTZ)","OBJECT_ID":"2023-084AN","EPOCH":"2026-04-22T05:46:02.754624","MEAN_MOTION":15.91873455,"ECCENTRICITY":0.00018637,"INCLINATION":97.4384,"RA_OF_ASC_NODE":258.0817,"ARG_OF_PERICENTER":266.7973,"MEAN_ANOMALY":93.3088,"EPHEMERIS_TYPE":0,"CLASSIFICATION_TYPE":"U","NORAD_CAT_ID":56968,"ELEMENT_SET_NO":999,"REV_AT_EPOCH":16045,"BSTAR":0.00077518025,"MEAN_MOTION_DOT":0.00252841,"MEAN_MOTION_DDOT":2.5937901e-5},{"OBJECT_NAME":"SHIYAN-25 (SY-25)","OBJECT_ID":"2023-087A","EPOCH":"2026-04-21T21:47:44.028672","MEAN_MOTION":16.0099166,"ECCENTRICITY":0.0016213,"INCLINATION":96.7632,"RA_OF_ASC_NODE":173.4204,"ARG_OF_PERICENTER":213.4892,"MEAN_ANOMALY":146.5365,"EPHEMERIS_TYPE":0,"CLASSIFICATION_TYPE":"U","NORAD_CAT_ID":57047,"ELEMENT_SET_NO":999,"REV_AT_EPOCH":16579,"BSTAR":-0.00012574,"MEAN_MOTION_DOT":-0.00069107,"MEAN_MOTION_DDOT":3.7882e-6},{"OBJECT_NAME":"QIANKUN-1","OBJECT_ID":"2023-103B","EPOCH":"2026-04-21T20:09:38.852064","MEAN_MOTION":16.07700153,"ECCENTRICITY":0.00415509,"INCLINATION":96.1743,"RA_OF_ASC_NODE":160.5448,"ARG_OF_PERICENTER":122.3633,"MEAN_ANOMALY":238.1686,"EPHEMERIS_TYPE":0,"CLASSIFICATION_TYPE":"U","NORAD_CAT_ID":57422,"ELEMENT_SET_NO":999,"REV_AT_EPOCH":15824,"BSTAR":0.00012392864,"MEAN_MOTION_DOT":0.00111854,"MEAN_MOTION_DDOT":7.236106e-6},{"OBJECT_NAME":"STARLINK-30189","OBJECT_ID":"2023-105A","EPOCH":"2026-04-22T06:00:00.999648","MEAN_MOTION":15.98848217,"ECCENTRICITY":0.00025878,"INCLINATION":42.9975,"RA_OF_ASC_NODE":334.4242,"ARG_OF_PERICENTER":265.0028,"MEAN_ANOMALY":303.821,"EPHEMERIS_TYPE":0,"CLASSIFICATION_TYPE":"U","NORAD_CAT_ID":57430,"ELEMENT_SET_NO":999,"REV_AT_EPOCH":590,"BSTAR":0.0013601223,"MEAN_MOTION_DOT":0.00675634,"MEAN_MOTION_DDOT":0.0002085084}]
